[{"OBJECT_NAME":"STARLINK-30978","OBJECT_ID":"2023-186T","EPOCH":"2026-03-09T22:00:01.999584","MEAN_MOTION":15.27576199,"ECCENTRICITY":0.00020459,"INCLINATION":43.0004,"RA_OF_ASC_NODE":62.2852,"ARG_OF_PERICENTER":214.3303,"MEAN_ANOMALY":79.869,"EPHEMERIS_TYPE":0,"CLASSIFICATION_TYPE":"U","NORAD_CAT_ID":58490,"ELEMENT_SET_NO":999,"REV_AT_EPOCH":578,"BSTAR":0.0017039495,"MEAN_MOTION_DOT":0.00046921,"MEAN_MOTION_DDOT":0},{"OBJECT_NAME":"CZ-6A DEB","OBJECT_ID":"2022-151DV","EPOCH":"2026-03-09T19:16:59.107296","MEAN_MOTION":15.22406517,"ECCENTRICITY":0.00445255,"INCLINATION":98.4509,"RA_OF_ASC_NODE":160.1888,"ARG_OF_PERICENTER":355.6495,"MEAN_ANOMALY":4.4345,"EPHEMERIS_TYPE":0,"CLASSIFICATION_TYPE":"U","NORAD_CAT_ID":54397,"ELEMENT_SET_NO":999,"REV_AT_EPOCH":17880,"BSTAR":0.0035436228,"MEAN_MOTION_DOT":0.00084931,"MEAN_MOTION_DDOT":0}]
